NORAD_CAT_ID,OBJECT_NAME,OBJECT_TYPE,EPOCH,MEAN_MOTION,ECCENTRICITY,INCLINATION,RA_OF_ASC_NODE,ARG_OF_PERICENTER,MEAN_ANOMALY,BSTAR,MEAN_MOTION_DOT,MEAN_MOTION_DDOT,TLE_LINE0,TLE_LINE1,TLE_LINE2,SEMIMAJOR_AXIS,PERIOD,APOGEE,PERIGEE,DECAYED
52675.0,STARLINK-3934,PAYLOAD,2023-02-24 12:13:41,15.08860435,0.0001229,53.2167,83.4259,98.0,262.1132,0.0011073,0.00017388,0.0,0 STARLINK-3934,1 52675U 22053V   23055.50950288  .00017388  00000-0  11073-2 0  9990,2 52675  53.2167  83.4259 0001229  98.0000 262.1132 15.08860435 43726,6917.818,95.436,540.533,538.833,0.0
52675.0,STARLINK-3934,PAYLOAD,2023-02-24 18:35:13,15.08841975,0.0001506,53.2166,82.2368,87.6295,272.4869,0.00045954,7.034e-05,0.0,0 STARLINK-3934,1 52675U 22053V   23055.77446671  .00007034  00000-0  45954-3 0  9998,2 52675  53.2166  82.2368 0001506  87.6295 272.4869 15.08841975 43337,6917.874,95.437,540.781,538.698,0.0
52675.0,STARLINK-3934,PAYLOAD,2023-02-25 05:42:56,15.08827324,0.0001113,53.2166,80.1553,91.4297,268.6823,0.00065673,0.00010176,0.0,0 STARLINK-3934,1 52675U 22053V   23056.23815125  .00010176  00000-0  65673-3 0  9995,2 52675  53.2166  80.1553 0001113  91.4297 268.6823 15.08827324 43406,6917.919,95.438,540.554,539.014,0.0
52675.0,STARLINK-3934,PAYLOAD,2023-02-25 13:39:52,15.08833408,0.0001307,53.2164,78.6687,83.7372,276.3769,0.0011069,0.00017369,0.0,0 STARLINK-3934,1 52675U 22053V   23056.56935423  .00017369  00000-0  11069-2 0  9995,2 52675  53.2164  78.6687 0001307  83.7372 276.3769 15.08833408 43884,6917.901,95.438,540.67,538.861,0.0
52675.0,STARLINK-3934,PAYLOAD,2023-02-25 18:26:01,15.08836604,0.0001381,53.2166,77.7763,87.8249,272.2901,0.00095825,0.00014994,0.0,0 STARLINK-3934,1 52675U 22053V   23056.76807524  .00014994  00000-0  95825-3 0  9991,2 52675  53.2166  77.7763 0001381  87.8249 272.2901 15.08836604 43919,6917.891,95.438,540.711,538.8,0.0
52675.0,STARLINK-3934,PAYLOAD,2023-02-26 08:44:29,15.08868255,0.0001274,53.2172,75.0997,89.3229,270.7909,0.0014329,0.00022608,0.0,0 STARLINK-3934,1 52675U 22053V   23057.36422853  .00022608  00000-0  14329-2 0  9996,2 52675  53.2172  75.0997 0001274  89.3229 270.7909 15.08868255 43572,6917.794,95.436,540.54,538.778,0.0
52675.0,STARLINK-3934,PAYLOAD,2023-02-26 18:16:48,15.08844757,9.84e-05,53.2175,73.3153,84.5606,275.5498,0.00017076,2.431e-05,0.0,0 STARLINK-3934,1 52675U 22053V   23057.76166872  .00002431  00000-0  17076-3 0  9991,2 52675  53.2175  73.3153 0000984  84.5606 275.5498 15.08844757 43637,6917.866,95.437,540.412,539.05,0.0
52675.0,STARLINK-3934,PAYLOAD,2023-02-27 05:24:29,15.0886145,0.0001275,53.2176,71.2339,79.8654,280.2482,0.00096515,0.00015115,0.0,0 STARLINK-3934,1 52675U 22053V   23058.22534715  .00015115  00000-0  96515-3 0  9996,2 52675  53.2176  71.2339 0001275  79.8654 280.2482 15.08861450 43708,6917.815,95.436,540.562,538.798,0.0
52675.0,STARLINK-3934,PAYLOAD,2023-02-27 18:07:34,15.08894571,0.0001578,53.217,68.8551,81.8575,278.2596,0.0041911,0.0006715,0.0,0 STARLINK-3934,1 52675U 22053V   23058.75526444  .00067150  00000-0  41911-2 0  9999,2 52675  53.2170  68.8551 0001578  81.8575 278.2596 15.08894571 44211,6917.714,95.434,540.67,538.487,0.0
52675.0,STARLINK-3934,PAYLOAD,2023-02-28 11:36:48,15.08877177,0.0001557,53.2184,65.5835,94.0723,266.0447,0.00098002,0.00015359,0.0,0 STARLINK-3934,1 52675U 22053V   23059.48389338  .00015359  00000-0  98002-3 0  9997,2 52675  53.2184  65.5835 0001557  94.0723 266.0447 15.08877177 43899,6917.767,95.435,540.709,538.555,0.0
52675.0,STARLINK-3934,PAYLOAD,2023-02-28 17:58:21,15.08825234,0.0001228,53.2183,64.3947,102.3934,257.7195,-0.00080981,-0.00013147,0.0,0 STARLINK-3934,1 52675U 22053V   23059.74886235 -.00013147  00000-0 -80981-3 0  9996,2 52675  53.2183  64.3947 0001228 102.3934 257.7195 15.08825234 44368,6917.926,95.438,540.64,538.941,0.0
52675.0,STARLINK-3934,PAYLOAD,2023-03-01 06:41:28,15.08802879,0.0001332,53.2186,62.0153,109.0347,251.079,-0.00059693,-9.766e-05,0.0,0 STARLINK-3934,1 52675U 22053V   23060.27879705 -.00009766  00000-0 -59693-3 0  9998,2 52675  53.2186  62.0153 0001332 109.0347 251.0790 15.08802879 44013,6917.994,95.44,540.78,538.937,0.0
52675.0,STARLINK-3934,PAYLOAD,2023-03-01 11:27:38,15.08802594,0.0001369,53.2188,61.1226,110.2653,249.8486,-6.4735e-05,-1.317e-05,0.0,0 STARLINK-3934,1 52675U 22053V   23060.47752316 -.00001317  00000-0 -64735-4 0  9996,2 52675  53.2188  61.1226 0001369 110.2653 249.8486 15.08802594 44471,6917.995,95.44,540.807,538.913,0.0
52675.0,STARLINK-3934,PAYLOAD,2023-03-02 03:21:30,15.08836185,0.0001095,53.2178,58.1513,115.8439,244.2666,0.0015433,0.00024356,0.0,0 STARLINK-3934,1 52675U 22053V   23061.13993312  .00024356  00000-0  15433-2 0  9998,2 52675  53.2178  58.1513 0001095 115.8439 244.2666 15.08836185 44140,6917.892,95.438,540.515,539.0,0.0
52675.0,STARLINK-3934,PAYLOAD,2023-03-02 16:04:35,15.08850213,0.0001213,53.2184,55.7711,114.1205,245.9914,0.00084085,0.00013123,0.0,0 STARLINK-3934,1 52675U 22053V   23061.66985016  .00013123  00000-0  84085-3 0  9998,2 52675  53.2184  55.7711 0001213 114.1205 245.9914 15.08850213 44226,6917.849,95.437,540.553,538.875,0.0
52675.0,STARLINK-3934,PAYLOAD,2023-03-03 06:23:02,15.08886894,0.0001233,53.218,53.0958,114.7996,245.3125,0.0015573,0.00024615,0.0,0 STARLINK-3934,1 52675U 22053V   23062.26599796  .00024615  00000-0  15573-2 0  9994,2 52675  53.2180  53.0958 0001233 114.7996 245.3125 15.08886894 44313,6917.737,95.435,540.455,538.749,0.0
52675.0,STARLINK-3934,PAYLOAD,2023-03-03 11:09:11,15.08896098,0.0001179,53.2176,52.2038,117.1033,243.0079,0.0015881,0.00025116,0.0,0 STARLINK-3934,1 52675U 22053V   23062.46471122  .00025116  00000-0  15881-2 0  9997,2 52675  53.2176  52.2038 0001179 117.1033 243.0079 15.08896098 44776,6917.709,95.434,540.39,538.758,0.0
52675.0,STARLINK-3934,PAYLOAD,2023-03-03 15:55:20,15.08867322,0.00016,53.2171,51.3125,91.0101,269.1074,0.00054789,8.449e-05,0.0,0 STARLINK-3934,1 52675U 22053V   23062.66343549  .00008449  00000-0  54789-3 0  9991,2 52675  53.2171  51.3125 0001600  91.0101 269.1074 15.08867322 44371,6917.797,95.436,540.769,538.555,0.0
52675.0,STARLINK-3934,PAYLOAD,2023-03-04 09:24:34,15.08880074,0.0001282,53.2179,48.0395,98.1867,261.9271,0.0010958,0.00017214,0.0,0 STARLINK-3934,1 52675U 22053V   23063.39206343  .00017214  00000-0  10958-2 0  9991,2 52675  53.2179  48.0395 0001282  98.1867 261.9271 15.08880074 44912,6917.758,95.435,540.51,538.736,0.0
52675.0,STARLINK-3934,PAYLOAD,2023-03-04 22:07:40,15.08845612,0.0001658,53.2169,45.6618,104.4568,255.6608,0.00122,0.00019185,0.0,0 STARLINK-3934,1 52675U 22053V   23063.92199128  .00019185  00000-0  12200-2 0  9993,2 52675  53.2169  45.6618 0001658 104.4568 255.6608 15.08845612 44999,6917.863,95.437,540.875,538.581,0.0
52675.0,STARLINK-3934,PAYLOAD,2023-03-05 07:39:59,15.08846082,0.0001273,53.2164,43.874,103.2127,256.9007,0.0015632,0.00024682,0.0,0 STARLINK-3934,1 52675U 22053V   23064.31943297  .00024682  00000-0  15632-2 0  9991,2 52675  53.2164  43.8740 0001273 103.2127 256.9007 15.08846082 44620,6917.862,95.437,540.607,538.846,0.0
52675.0,STARLINK-3934,PAYLOAD,2023-03-06 02:44:37,15.08864293,0.000194,53.2174,40.3089,62.9814,297.1376,0.0019753,0.0003131,0.0,0 STARLINK-3934,1 52675U 22053V   23065.11431768  .00031310  00000-0  19753-2 0  9999,2 52675  53.2174  40.3089 0001940  62.9814 297.1376 15.08864293 44747,6917.806,95.436,541.013,538.329,0.0
52675.0,STARLINK-3934,PAYLOAD,2023-03-06 21:49:14,15.08810451,0.0001179,53.2176,36.7372,102.3103,257.8021,-0.00022833,-3.917e-05,0.0,0 STARLINK-3934,1 52675U 22053V   23065.90919848 -.00003917  00000-0 -22833-3 0  9994,2 52675  53.2176  36.7372 0001179 102.3103 257.8021 15.08810451 45295,6917.971,95.439,540.651,539.02,0.0
52675.0,STARLINK-3934,PAYLOAD,2023-03-07 04:10:47,15.08815972,0.0001082,53.2176,35.5494,89.8791,270.2325,0.00091199,0.00014247,0.0,0 STARLINK-3934,1 52675U 22053V   23066.17416311  .00014247  00000-0  91199-3 0  9998,2 52675  53.2176  35.5494 0001082  89.8791 270.2325 15.08815972 44908,6917.954,95.439,540.567,539.07,0.0
52675.0,STARLINK-3934,PAYLOAD,2023-03-07 15:18:29,15.08847664,0.0001387,53.217,33.4695,86.0931,274.022,0.0015172,0.00023946,0.0,0 STARLINK-3934,1 52675U 22053V   23066.63784429  .00023946  00000-0  15172-2 0  9999,2 52675  53.2170  33.4695 0001387  86.0931 274.0220 15.08847664 44971,6917.857,95.437,540.681,538.762,0.0
52675.0,STARLINK-3934,PAYLOAD,2023-03-08 04:01:34,15.08859856,0.0001491,53.2174,31.0885,97.0738,263.0423,0.001655,0.00026164,0.0,0 STARLINK-3934,1 52675U 22053V   23067.16776165  .00026164  00000-0  16550-2 0  9992,2 52675  53.2174  31.0885 0001491  97.0738 263.0423 15.08859856 45052,6917.82,95.436,540.716,538.653,0.0
52675.0,STARLINK-3934,PAYLOAD,2023-03-08 21:30:48,15.08863915,0.0001605,53.2175,27.82,76.7572,283.3599,0.0011768,0.00018503,0.0,0 STARLINK-3934,1 52675U 22053V   23067.89640014  .00018503  00000-0  11768-2 0  9999,2 52675  53.2175  27.8200 0001605  76.7572 283.3599 15.08863915 45593,6917.807,95.436,540.783,538.562,0.0
52675.0,STARLINK-3934,PAYLOAD,2023-03-09 03:52:21,15.08869669,0.0001276,53.2189,26.6304,68.7446,291.3682,0.0014733,0.00023256,0.0,0 STARLINK-3934,1 52675U 22053V   23068.16135819  .00023256  00000-0  14733-2 0  9998,2 52675  53.2189  26.6304 0001276  68.7446 291.3682 15.08869669 45207,6917.79,95.436,540.537,538.772,0.0
52675.0,STARLINK-3934,PAYLOAD,2023-03-09 21:21:35,15.08861758,0.0001454,53.2191,23.3578,67.8339,292.2808,0.0016912,0.00026746,0.0,0 STARLINK-3934,1 52675U 22053V   23068.88999980  .00026746  00000-0  16912-2 0  9992,2 52675  53.2191  23.3578 0001454  67.8339 292.2808 15.08861758 45746,6917.814,95.436,540.685,538.673,0.0
52675.0,STARLINK-3934,PAYLOAD,2023-03-10 03:43:07,15.08884879,0.0001408,53.2186,22.1693,64.0083,296.1054,0.0022852,0.00036313,0.0,0 STARLINK-3934,1 52675U 22053V   23069.15495335  .00036313  00000-0  22852-2 0  9999,2 52675  53.2186  22.1693 0001408  64.0083 296.1054 15.08884879 45351,6917.743,95.435,540.582,538.634,0.0
